#dP2021  6 21  0  0  0.00000000      97 __u+U IGS14 FIT  IAC
## 2163  86400.00000000   900.00000000 59386 0.0000000000000
+  123   C01C02C03C04C05C06C07C08C09C10C11C12C13C14C16C19C20
+        C21C22C23C24C25C26C27C28C29C30C32C33C34C35C36C37C38
+        C39C40C41C42C43C44C45C46C60E01E02E03E04E05E07E08E09
+        E11E12E13E14E15E18E19E21E24E25E26E27E30E31E33E36G01
+        G02G03G04G05G06G07G08G09G10G12G13G14G15G16G17G18G19
+        G20G21G22G23G24G25G26G27G28G29G30G31G32J01J02J03J07
+        R01R02R03R04R05R07R08R09R11R12R13R14R15R16R17R18R19
+        R20R21R22R24  0  0  0  0  0  0  0  0  0  0  0  0  0
++        13 13 13 14 13  9 11  9  8  9  8  8  9  8  9  7  7
++         7  7  7  7  7  7  7  7  7  7  7  7  7  7  7  7  8
++         8  8  7  8  8  8  7  8 15  4  4  4  4  4  4  5  4
++         4  4  4  4  4  4  4  4  4  4  4  4  4  4  4  4  3
++         3  3  3  3  3  3  3  3  3  4  3  3  3  4  4  3  4
++         3  3  3  3  3  3  3  3  4  3  3  4  3  9  8  8 15
++         7  6  6  5  5  5  5  5  7  5  7  5  5  7  6  6  7
++         7  5  7  6  0  0  0  0  0  0  0  0  0  0  0  0  0
%c M  cc GPS ccc cccc cccc cccc cccc ccccc ccccc ccccc ccccc
%c cc cc ccc ccc cccc cccc cccc cccc ccccc ccccc ccccc ccccc
%f  1.2500000  1.025000000  0.00000000000  0.000000000000000
%f  0.0000000  0.000000000  0.00000000000  0.000000000000000
%i    0    0    0    0      0      0      0      0         0
%i    0    0    0    0      0      0      0      0         0
/* INFORMATION & ANALYSIS CENTER (IAC)            FINAL DATA
/* S/V CLOCKS ARE ALIGNED TO GNSS TIME                      
/* G:C1WC2W R:C1PC2P E:C1XC5X C:C2IC6I J:C1CC2S             
/* PCV:IGS14_2148 OL/AL:FES2004  NONE     YN ORB:CoN CLK:CoN
*  2021 06 21 13  0  0.00000000
PC01 -34358.206884  24422.769292   -207.185740   -348.601516
PC02   4375.285807  41941.082837   1408.045056    574.225463
PC03 -14830.260964  39493.359897    650.404502   -161.626911
PC04 -39619.542520  14432.158521   -383.464191   -289.993419
PC05  21868.691922  36050.269999   1145.447518    -79.661505
PC06  -8484.644178  34310.040692  23842.433202    529.869482
PC07 -17468.906486  22630.748069 -30861.788580     50.011823
PC08 -22814.305597  33594.239787  10731.819529   -896.194214
PC09   1372.258965  41028.422067  10898.893235    431.620977
PC10  -1039.140453  26495.228625 -32523.358157    -27.371574
PC11  10566.911661  23824.827872   9969.226232    412.731760
PC12   -384.398212  26806.916956  -7679.277996    836.810716
PC13 -12929.558964  34269.151630  20763.391853    308.145824
PC14  17973.469792  16289.644136  13768.617183    879.526196
PC16  -5847.138761  35664.234667  22029.156231   -913.134337
PC19 -24624.229296 -12132.389861  -5061.358115    880.643961
PC20 -10397.132530 -17505.968759 -19081.016952   -869.120595
PC21 -10900.337938  12628.839081  22394.502545   -935.238367
PC22 -25051.440721    380.176208  12330.608035   -949.466373
PC23  23691.705507  -9986.858011 -10836.561610   -943.087188
PC24  -1442.428291  19725.775437 -19680.558248   -903.131071
PC25  16559.243268   5926.968533 -21671.933546   -897.632337
PC26 -16445.748738  21414.815081  -6987.288287    889.567886
PC27   6914.438853 -22211.906113  15377.622891    551.886547
PC28  15380.818288  -4025.237107  22931.355238    -59.721044
PC29 -15428.903556 -15902.378998 -16976.364702    409.085425
PC30  -6241.536806 -27180.889541   -615.624606    471.423024
PC32  10783.017067 -12713.560276 -22359.043221   -924.597885
PC33  24609.989784  12069.052599   5182.842518   -937.732581
PC34   6643.699516  27083.472855   1324.262270   -645.438518
PC35 -15395.404157   4183.957417 -22907.182441   -222.980645
PC36 -16137.722045  -6660.739695  21800.427839   -728.415420
PC37  17559.492923 -20812.752427   6159.288305   -872.569887
PC38 -20489.320389  34761.373622  11969.266809    156.683907
PC39  -2318.940055  36601.742080  20946.975735     31.899216
PC40  -7351.306832  21219.958610 -35661.868807    173.112742
PC41  25172.604833   -211.699065 -11991.978096   -949.822892
PC42   9496.666209  17572.628458  19524.334662   -914.424900
PC43  15279.818900  16488.803576  16536.750322   -786.520257
PC44  -6386.748116  22340.590292 -15491.647772    250.680746
PC45 -23641.958091  10163.181090  10784.399405    473.094387
PC46    479.114859 -19231.752784  20236.631037    214.146078
PC60   7248.162083  41526.689896   -839.403731 999999.999999
PE01  19444.956891   9460.891444 -20210.386683  -1133.938488
PE02 -19547.233696  -9389.887952  20143.114389    227.636794
PE03 -21410.020374 -20320.587877   2330.294511   -444.358399
PE04  22586.347045   4889.466868 -18483.148534   -797.106761
PE05  -7625.280973 -24061.171205 -15459.283106   -271.204946
PE07 -10463.268571  13734.232990  24052.977898   -552.521806
PE08 -22438.353819  -4537.994553  18779.710664   5982.488830
PE09  10109.169672 -13846.672281 -24121.879126   5626.211286
PE11  14077.832159 -23844.563420  10423.559722   5822.233286
PE12  17383.460792  -4829.384852  23455.214474   5149.150639
PE13 -14162.346166  23622.453463 -10854.706211    418.032343
PE14  15046.636514  19166.855094   4603.470611  -1473.804790
PE15 -17308.527175   4969.242677 -23493.971997    807.615215
PE18 -23231.618719 -14376.985029 -16562.404162  -1614.453922
PE19  20351.100965  21493.202049   -130.532130    307.788206
PE21   -568.254416  16937.708441 -24267.579242   -671.925703
PE24  21832.301633 -14549.915520  13712.870279   -966.702467
PE25    803.206235 -16975.498545  24242.690042   -537.609480
PE26  -2170.317995  28144.134203   8904.754519   1667.711083
PE27 -21078.263418  14946.627805 -14429.744414    -59.066252
PE30 -29013.866788   3366.766924   4763.723678   2845.733813
PE31  29051.871346  -4197.065907  -3801.485163   -482.443358
PE33  10253.884492  16580.518259  22274.552414   -468.834540
PE36   2679.498121 -28324.685988  -8156.018709   -223.966718
PG01  14040.770116 -22065.699256   3115.293626    651.663072
PG02 -16495.543231   3411.622591 -19901.044852   -614.031193
PG03  16235.688978 -12410.756128 -16990.066399   -198.239820
PG04   6289.042416 -16527.629287 -19791.179843   -200.497888
PG05 -25364.965091   5982.570701   5457.244195    -45.607739
PG06 -11596.449596  -9315.756859 -21945.524602     29.722207
PG07   4210.555004 -23942.959507  10440.427406    183.810234
PG08  13465.237374  -6933.960714  21816.972248    -25.935544
PG09  -4131.421212 -22829.645624 -12970.444028   -352.169988
PG10  15071.658585  11978.328247  18531.508553   -146.754847
PG12 -17989.904099  10764.134464 -16477.735738    -58.032497
PG13 -16681.523022  -2441.658492  20424.852237    147.727362
PG14 -14488.990351 -12796.672255  18224.410112     64.632811
PG15 -13041.077081   8877.092428  21011.200087   -140.857883
PG16  26788.442244    765.090280    585.352141   -344.811356
PG17 -13045.406185 -23124.582785   -154.496521    461.944788
PG18  -2585.620003  23099.491723  12772.935509    345.618520
PG19 -16618.368338 -18498.714407  -9799.097213     16.279756
PG20 -25590.398607   6197.822586   1603.890638    520.947451
PG21  16492.532502 -17115.314446  12014.646897    126.458718
PG22  22716.631481 -10030.433218  -8956.952251   -582.884984
PG23   2533.453318  14951.928705  21785.423395     94.289329
PG24 -15140.415769  19853.365711   8205.424467    142.412589
PG25  -5453.071303  15180.115334 -21319.796683    159.870624
PG26  24389.650494   4879.222047  -9746.900759    101.164337
PG27  18178.207187   4859.935767  18712.425912   -150.734500
PG28 -19282.523519 -11083.648457  14923.132694    550.918687
PG29   1745.326088  22581.216202 -13879.568552   -367.768969
PG30  -6077.479636 -17697.872887  18826.945070   -441.672819
PG31  13828.122677   6726.084290 -21746.081975   -124.317818
PG32  16071.265055  21064.492465  -2791.085072     17.633663
PJ01 -27841.450651  20517.326815  29178.642222   -400.046976
PJ02 -35701.777515  18799.888637  -7758.891704     -0.353744
PJ03 -18993.655792  28774.285506 -19731.332604     -8.723047
PJ07 -25410.149220  33655.993446      9.360165 999999.999999
PR01   9040.582675  -7498.953725 -22635.827199     81.196371
PR02 -11129.376913 -15603.942825 -16755.199612    483.182009
PR03 -21903.865645 -12990.867569   -835.206332     38.099235
PR04 -20121.842473  -3266.521543  15360.920992     92.295955
PR05  -7189.398971   8309.751090  23033.180724     73.962730
PR07  22074.118694  12825.493238    298.965349    -42.271862
PR08  20154.768173   3202.583472 -15257.119209    -59.628661
PR09  -1090.842804  13184.769651 -21804.127703     -0.965636
PR11  22442.806903  -9366.737374  -7660.824691    -14.043305
PR12  17018.658360 -15849.529654  10526.898448    238.998984
PR13   1859.705780 -13230.692151  21715.379119    -56.589804
PR14 -15151.950186  -2470.054339  20391.261872     65.589423
PR15 -22652.934467   9299.213135   7174.863114    103.126659
PR16 -15780.221878  16362.893014 -11461.584775    -16.689257
PR17  -8713.339943 -14391.589056 -19188.451524    434.536289
PR18 -10354.140584   3776.928467 -23001.687235     80.795498
PR19  -7381.570596  19055.565912 -15270.967648   -148.597203
PR20    937.037657  25201.591486   3974.334281    -51.237601
PR21   8910.078283  13193.488740  19913.213757   -218.182001
PR22  10254.509404  -4720.992952  22841.305580   -118.803039
PR24  -1765.360450 -25026.533890  -4640.826094     47.405102
EOF
